{"type": "FeatureCollection", "features": [{"type": "Feature", "properties": {"norad_id": 22675, "name": "COSMOS 2251", "group": "cosmos-2251-debris", "lat": -68.1762172209372, "lon": 170.6836536028144, "alt_km": 799.2306989272429, "timestamp": "2025-12-18T15:47:11.617713+00:00", "meta": {"OBJECT_NAME": "COSMOS 2251", "OBJECT_ID": "1993-036A", "EPOCH": "2025-12-18T06:13:27.693984", "MEAN_MOTION": 14.3320651, "ECCENTRICITY": 0.00241906, "INCLINATION": 74.0399, "RA_OF_ASC_NODE": 305.7983, "ARG_OF_PERICENTER": 26.4987, "MEAN_ANOMALY": 333.7395, "EPHEMERIS_TYPE": 0, "CLASSIFICATION_TYPE": "U", "NORAD_CAT_ID": 22675, "ELEMENT_SET_NO": 999, "REV_AT_EPOCH": 69852, "BSTAR": 4.3127393e-05, "MEAN_MOTION_DOT": 9.3e-07, "MEAN_MOTION_DDOT": 0}, "tle": {"line1": "1 22675U 93036A   25352.25934831  .00000093  00000+0  43127-4 0  9997", "line2": "2 22675  74.0399 305.7983 0024190  26.4987 333.7395 14.33206510698521"}}, "geometry": {"type": "Point", "coordinates": [170.6836536028144, -68.1762172209372]}}, {"type": "Feature", "properties": {"norad_id": 33757, "name": "COSMOS 2251 DEB", "group": "cosmos-2251-debris", "lat": -70.96406874145288, "lon": -103.24891502826915, "alt_km": 782.1569413048983, "timestamp": "2025-12-18T15:47:11.617737+00:00", "meta": {"OBJECT_NAME": "COSMOS 2251 DEB", "OBJECT_ID": "1993-036E", "EPOCH": "2025-12-18T06:24:35.254944", "MEAN_MOTION": 14.32582412, "ECCENTRICITY": 0.00154576, "INCLINATION": 74.0372, "RA_OF_ASC_NODE": 313.519, "ARG_OF_PERICENTER": 325.9107, "MEAN_ANOMALY": 100.5892, "EPHEMERIS_TYPE": 0, "CLASSIFICATION_TYPE": "U", "NORAD_CAT_ID": 33757, "ELEMENT_SET_NO": 999, "REV_AT_EPOCH": 88075, "BSTAR": 3.507109e-05, "MEAN_MOTION_DOT": 6.9e-07, "MEAN_MOTION_DDOT": 0}, "tle": {"line1": "1 33757U 93036E   25352.26707471  .00000069  00000+0  35071-4 0  9991", "line2": "2 33757  74.0372 313.5190 0015457 325.9107 100.5892 14.32582412880756"}}, "geometry": {"type": "Point", "coordinates": [-103.24891502826915, -70.96406874145288]}}, {"type": "Feature", "properties": {"norad_id": 33758, "name": "COSMOS 2251 DEB", "group": "cosmos-2251-debris", "lat": -73.97427202406483, "lon": 118.18229503658343, "alt_km": 715.0181463423187, "timestamp": "2025-12-18T15:47:11.617752+00:00", "meta": {"OBJECT_NAME": "COSMOS 2251 DEB", "OBJECT_ID": "1993-036F", "EPOCH": "2025-12-18T00:20:57.640128", "MEAN_MOTION": 14.51625387, "ECCENTRICITY": 0.00172982, "INCLINATION": 74.027, "RA_OF_ASC_NODE": 205.0944, "ARG_OF_PERICENTER": 271.4624, "MEAN_ANOMALY": 239.7311, "EPHEMERIS_TYPE": 0, "CLASSIFICATION_TYPE": "U", "NORAD_CAT_ID": 33758, "ELEMENT_SET_NO": 999, "REV_AT_EPOCH": 88381, "BSTAR": 0.0005880821, "MEAN_MOTION_DOT": 2.334e-05, "MEAN_MOTION_DDOT": 0}, "tle": {"line1": "1 33758U 93036F   25352.01455602  .00002334  00000+0  58808-3 0  9990", "line2": "2 33758  74.0270 205.0944 0017298 271.4624 239.7311 14.51625387883811"}}, "geometry": {"type": "Point", "coordinates": [118.18229503658343, -73.97427202406483]}}, {"type": "Feature", "properties": {"norad_id": 33760, "name": "COSMOS 2251 DEB", "group": "cosmos-2251-debris", "lat": -50.74558076242841, "lon": 111.10656493890627, "alt_km": 789.3574586951827, "timestamp": "2025-12-18T15:47:11.617765+00:00", "meta": {"OBJECT_NAME": "COSMOS 2251 DEB", "OBJECT_ID": "1993-036H", "EPOCH": "2025-12-18T05:25:09.932160", "MEAN_MOTION": 14.35676297, "ECCENTRICITY": 0.00201314, "INCLINATION": 74.0322, "RA_OF_ASC_NODE": 271.3881, "ARG_OF_PERICENTER": 8.421, "MEAN_ANOMALY": 153.6458, "EPHEMERIS_TYPE": 0, "CLASSIFICATION_TYPE": "U", "NORAD_CAT_ID": 33760, "ELEMENT_SET_NO": 999, "REV_AT_EPOCH": 88203, "BSTAR": 8.5838352e-05, "MEAN_MOTION_DOT": 2.22e-06, "MEAN_MOTION_DDOT": 0}, "tle": {"line1": "1 33760U 93036H   25352.22580940  .00000222  00000+0  85838-4 0  9998", "line2": "2 33760  74.0322 271.3881 0020131   8.4210 153.6458 14.35676297882034"}}, "geometry": {"type": "Point", "coordinates": [111.10656493890627, -50.74558076242841]}}, {"type": "Feature", "properties": {"norad_id": 33761, "name": "COSMOS 2251 DEB", "group": "cosmos-2251-debris", "lat": -48.4965290689162, "lon": -137.6923799278389, "alt_km": 740.3538678053092, "timestamp": "2025-12-18T15:47:11.617777+00:00", "meta": {"OBJECT_NAME": "COSMOS 2251 DEB", "OBJECT_ID": "1993-036J", "EPOCH": "2025-12-18T03:16:02.052768", "MEAN_MOTION": 14.42560407, "ECCENTRICITY": 0.00231793, "INCLINATION": 74.0356, "RA_OF_ASC_NODE": 242.1509, "ARG_OF_PERICENTER": 321.6337, "MEAN_ANOMALY": 159.4421, "EPHEMERIS_TYPE": 0, "CLASSIFICATION_TYPE": "U", "NORAD_CAT_ID": 33761, "ELEMENT_SET_NO": 999, "REV_AT_EPOCH": 88312, "BSTAR": 0.00033280447, "MEAN_MOTION_DOT": 1.081e-05, "MEAN_MOTION_DDOT": 0}, "tle": {"line1": "1 33761U 93036J   25352.13613487  .00001081  00000+0  33280-3 0  9999", "line2": "2 33761  74.0356 242.1509 0023179 321.6337 159.4421 14.42560407883128"}}, "geometry": {"type": "Point", "coordinates": [-137.6923799278389, -48.4965290689162]}}, {"type": "Feature", "properties": {"norad_id": 33762, "name": "COSMOS 2251 DEB", "group": "cosmos-2251-debris", "lat": 48.250725279831876, "lon": 100.50814802719422, "alt_km": 781.7978438607224, "timestamp": "2025-12-18T15:47:11.617789+00:00", "meta": {"OBJECT_NAME": "COSMOS 2251 DEB", "OBJECT_ID": "1993-036K", "EPOCH": "2025-12-18T07:21:32.226336", "MEAN_MOTION": 14.33665487, "ECCENTRICITY": 0.00152286, "INCLINATION": 74.042, "RA_OF_ASC_NODE": 299.8489, "ARG_OF_PERICENTER": 359.915, "MEAN_ANOMALY": 117.3593, "EPHEMERIS_TYPE": 0, "CLASSIFICATION_TYPE": "U", "NORAD_CAT_ID": 33762, "ELEMENT_SET_NO": 999, "REV_AT_EPOCH": 88127, "BSTAR": 4.0510456e-05, "MEAN_MOTION_DOT": 8.6e-07, "MEAN_MOTION_DDOT": 0}, "tle": {"line1": "1 33762U 93036K   25352.30662299  .00000086  00000+0  40510-4 0  9993", "line2": "2 33762  74.0420 299.8489 0015228 359.9150 117.3593 14.33665487881271"}}, "geometry": {"type": "Point", "coordinates": [100.50814802719422, 48.250725279831876]}}, {"type": "Feature", "properties": {"norad_id": 33764, "name": "COSMOS 2251 DEB", "group": "cosmos-2251-debris", "lat": 31.809284274420108, "lon": -88.04172035760277, "alt_km": 774.3747156199734, "timestamp": "2025-12-18T15:47:11.617800+00:00", "meta": {"OBJECT_NAME": "COSMOS 2251 DEB", "OBJECT_ID": "1993-036M", "EPOCH": "2025-12-18T04:39:47.798208", "MEAN_MOTION": 14.39521891, "ECCENTRICITY": 0.00236998, "INCLINATION": 74.0336, "RA_OF_ASC_NODE": 262.5852, "ARG_OF_PERICENTER": 227.3371, "MEAN_ANOMALY": 285.078, "EPHEMERIS_TYPE": 0, "CLASSIFICATION_TYPE": "U", "NORAD_CAT_ID": 33764, "ELEMENT_SET_NO": 999, "REV_AT_EPOCH": 88235, "BSTAR": 0.00025225359, "MEAN_MOTION_DOT": 7.63e-06, "MEAN_MOTION_DDOT": 0}, "tle": {"line1": "1 33764U 93036M   25352.19430322  .00000763  00000+0  25225-3 0  9999", "line2": "2 33764  74.0336 262.5852 0023699 227.3371 285.0780 14.39521891882351"}}, "geometry": {"type": "Point", "coordinates": [-88.04172035760277, 31.809284274420108]}}, {"type": "Feature", "properties": {"norad_id": 33765, "name": "COSMOS 2251 DEB", "group": "cosmos-2251-debris", "lat": -67.25256073624078, "lon": 117.70570837209058, "alt_km": 505.00352047494016, "timestamp": "2025-12-18T15:47:11.617811+00:00", "meta": {"OBJECT_NAME": "COSMOS 2251 DEB", "OBJECT_ID": "1993-036N", "EPOCH": "2025-12-18T05:46:16.497408", "MEAN_MOTION": 15.10302931, "ECCENTRICITY": 0.00649726, "INCLINATION": 74.0073, "RA_OF_ASC_NODE": 161.7288, "ARG_OF_PERICENTER": 252.8763, "MEAN_ANOMALY": 285.1573, "EPHEMERIS_TYPE": 0, "CLASSIFICATION_TYPE": "U", "NORAD_CAT_ID": 33765, "ELEMENT_SET_NO": 999, "REV_AT_EPOCH": 89701, "BSTAR": 0.0015914457, "MEAN_MOTION_DOT": 0.00027482, "MEAN_MOTION_DDOT": 0}, "tle": {"line1": "1 33765U 93036N   25352.24046872  .00027482  00000+0  15914-2 0  9999", "line2": "2 33765  74.0073 161.7288 0064972 252.8763 285.1573 15.10302931897012"}}, "geometry": {"type": "Point", "coordinates": [117.70570837209058, -67.25256073624078]}}, {"type": "Feature", "properties": {"norad_id": 33766, "name": "COSMOS 2251 DEB", "group": "cosmos-2251-debris", "lat": -21.89810962135953, "lon": 117.69082446340695, "alt_km": 734.9977646916741, "timestamp": "2025-12-18T15:47:11.617822+00:00", "meta": {"OBJECT_NAME": "COSMOS 2251 DEB", "OBJECT_ID": "1993-036P", "EPOCH": "2025-12-18T07:31:31.162368", "MEAN_MOTION": 14.34949925, "ECCENTRICITY": 0.00644374, "INCLINATION": 74.1855, "RA_OF_ASC_NODE": 124.8574, "ARG_OF_PERICENTER": 326.6905, "MEAN_ANOMALY": 33.02, "EPHEMERIS_TYPE": 0, "CLASSIFICATION_TYPE": "U", "NORAD_CAT_ID": 33766, "ELEMENT_SET_NO": 999, "REV_AT_EPOCH": 87825, "BSTAR": 0.00040575247, "MEAN_MOTION_DOT": 1.156e-05, "MEAN_MOTION_DDOT": 0}, "tle": {"line1": "1 33766U 93036P   25352.31355512  .00001156  00000+0  40575-3 0  9994", "line2": "2 33766  74.1855 124.8574 0064437 326.6905  33.0200 14.34949925878251"}}, "geometry": {"type": "Point", "coordinates": [117.69082446340695, -21.89810962135953]}}, {"type": "Feature", "properties": {"norad_id": 33768, "name": "COSMOS 2251 DEB", "group": "cosmos-2251-debris", "lat": 71.67888465762194, "lon": -90.06696808658624, "alt_km": 950.384622517332, "timestamp": "2025-12-18T15:47:11.617833+00:00", "meta": {"OBJECT_NAME": "COSMOS 2251 DEB", "OBJECT_ID": "1993-036R", "EPOCH": "2025-12-18T01:49:15.367584", "MEAN_MOTION": 13.58459409, "ECCENTRICITY": 0.03665923, "INCLINATION": 74.0672, "RA_OF_ASC_NODE": 211.256, "ARG_OF_PERICENTER": 7.8348, "MEAN_ANOMALY": 104.3308, "EPHEMERIS_TYPE": 0, "CLASSIFICATION_TYPE": "U", "NORAD_CAT_ID": 33768, "ELEMENT_SET_NO": 999, "REV_AT_EPOCH": 83368, "BSTAR": 0.00027935793, "MEAN_MOTION_DOT": 2.94e-06, "MEAN_MOTION_DDOT": 0}, "tle": {"line1": "1 33768U 93036R   25352.07587231  .00000294  00000+0  27936-3 0  9992", "line2": "2 33768  74.0672 211.2560 0366592   7.8348 104.3308 13.58459409833688"}}, "geometry": {"type": "Point", "coordinates": [-90.06696808658624, 71.67888465762194]}}]}